{
  "norad_id": 65474,
  "name": "STARLINK-34998",
  "history": [
    {
      "epoch": "2026-03-28T11:46:52.664448",
      "apogee_km": 475.7214093513776,
      "perigee_km": 474.7053316254496,
      "latitude_deg": -1.5768383093826013,
      "longitude_deg": 54.5251827200409,
      "semi_major_axis_km": 6853.350370488413,
      "eccentricity": 7.413e-05,
      "inclination_deg": 53.1617,
      "raan_deg": 170.7486,
      "arg_perigee_deg": 58.1928,
      "mean_anomaly_deg": 301.9145,
      "mean_motion_rev_day": 15.30200569
    }
  ]
}