{"fetched_at":"2026-03-29T16:36:15Z","count":15609,"tles":[{"name":"STARLINK-34998","line1":"1 65474U 25195S   26087.49088732  .00018375  00000+0  63096-3 0  9992","line2":"2 65474  53.1617 170.7486 0000741  58.1928 301.9145 15.30200569 32851","category":"Starlink"}]}